[
    {
        "CCSDS_OMM_VERS": "3.0",
        "COMMENT": "GENERATED VIA SPACE-TRACK.ORG API",
        "CREATION_DATE": "2025-04-14T03:05:54",
        "ORIGINATOR": "18 SPCS",
        "OBJECT_NAME": "GALILEO 17 (26D)",
        "OBJECT_ID": "2016-069C",
        "CENTER_NAME": "EARTH",
        "REF_FRAME": "TEME",
        "TIME_SYSTEM": "UTC",
        "MEAN_ELEMENT_THEORY": "SGP4",
        "EPOCH": "2025-04-13T00:02:17.006208",
        "MEAN_MOTION": "1.70474899",
        "ECCENTRICITY": "0.00058820",
        "INCLINATION": "55.2407",
        "RA_OF_ASC_NODE": "113.0040",
        "ARG_OF_PERICENTER": "289.2359",
        "MEAN_ANOMALY": "70.7394",
        "EPHEMERIS_TYPE": "0",
        "CLASSIFICATION_TYPE": "U",
        "NORAD_CAT_ID": "41861",
        "ELEMENT_SET_NO": "999",
        "REV_AT_EPOCH": "5218",
        "BSTAR": "0.00000000000000",
        "MEAN_MOTION_DOT": "0.00000054",
        "MEAN_MOTION_DDOT": "0.0000000000000",
        "SEMIMAJOR_AXIS": "29600.216",
        "PERIOD": "844.699",
        "APOAPSIS": "23239.492",
        "PERIAPSIS": "23204.670",
        "OBJECT_TYPE": "PAYLOAD",
        "RCS_SIZE": "LARGE",
        "COUNTRY_CODE": "ESA",
        "LAUNCH_DATE": "2016-11-17",
        "SITE": "FRGUI",
        "DECAY_DATE": null,
        "FILE": "4701263",
        "GP_ID": "285537469",
        "TLE_LINE0": "0 GALILEO 17 (26D)",
        "TLE_LINE1": "1 41861U 16069C   25103.00158572  .00000054  00000-0  00000-0 0  9990",
        "TLE_LINE2": "2 41861  55.2407 113.0040 0005882 289.2359  70.7394  1.70474899 52180"
    }
]